OBJECT_NAME,OBJECT_ID,EPOCH,MEAN_MOTION,ECCENTRICITY,INCLINATION,RA_OF_ASC_NODE,ARG_OF_PERICENTER,MEAN_ANOMALY,EPHEMERIS_TYPE,CLASSIFICATION_TYPE,NORAD_CAT_ID,ELEMENT_SET_NO,REV_AT_EPOCH,BSTAR,MEAN_MOTION_DOT,MEAN_MOTION_DDOT
ORBCOMM FM06,1997-084G,2026-06-05T04:39:20.623680,14.47531336,.00020847,45.0130,110.4462,294.5969,80.4211,0,U,25118,999,49265,.42359718E-3,.1427E-4,0
ORBCOMM FM04,1998-007C,2026-06-05T04:50:04.522272,14.35717996,.00409353,107.9627,144.7515,345.4396,14.5562,0,U,25159,999,47487,.3932868E-3,.1016E-4,0
ORBCOMM FM19,1998-046C,2026-06-05T03:58:06.234816,14.39476658,.00041177,44.9943,300.7042,233.5460,296.0180,0,U,25415,999,45504,.41838434E-3,.1173E-4,0
ORBCOMM FM20,1998-046D,2026-06-05T03:12:10.887840,14.38049808,.0001413,44.9950,308.6458,209.3254,150.7515,0,U,25416,999,45505,.32594129E-3,.854E-5,0
ORBCOMM FM27,1998-053G,2026-06-04T23:16:29.114688,14.39117893,.0000376,45.0065,33.3805,18.6133,341.4730,0,U,25481,999,44847,.4051536E-3,.1122E-4,0
ORBCOMM FM32,1999-065C,2026-06-04T16:59:31.530912,14.37115357,.00053334,45.0147,232.3088,333.3641,26.6933,0,U,25982,999,38529,.28816479E-3,.722E-5,0
ORBCOMM FM109,2014-040A,2026-06-05T05:59:52.291392,14.58829502,.00015107,47.0015,147.9247,210.8186,149.2612,0,U,40086,999,63260,.13320886E-3,.458E-5,0
ORBCOMM FM114,2015-081A,2026-06-01T23:30:56.809152,14.58838571,.00015469,47.0052,73.9009,135.7645,224.3365,0,U,41179,999,55553,.16355792E-3,.602E-5,0
ORBCOMM FM110,2015-081D,2026-06-02T23:53:49.713792,14.58854978,.00032303,47.0024,68.5419,358.8742,1.2136,0,U,41182,999,55555,.19639955E-3,.757E-5,0
ORBCOMM FM118,2015-081E,2026-06-02T00:03:48.794112,14.58855670,.00036016,47.0044,73.5648,319.9456,40.1164,0,U,41183,999,55551,.77410128E-3,.349E-4,0
ORBCOMM FM112,2015-081F,2026-06-05T03:47:17.285280,14.58885738,.00029346,47.0001,327.1297,162.7897,197.3089,0,U,41184,999,55719,.19041085E-3,.729E-5,0
ORBCOMM FM113,2015-081G,2026-06-05T04:51:43.729344,14.58845078,.00015242,47.0019,327.2885,173.9999,186.0905,0,U,41185,999,55718,.15022825E-3,.539E-5,0
ORBCOMM FM108,2015-081J,2026-06-01T22:42:30.904992,14.58851287,.00021293,47.0049,254.2558,152.3962,207.7037,0,U,41187,999,55785,.23678195E-3,.948E-5,0
ORBCOMM FM117,2015-081K,2026-06-02T17:36:15.708096,14.58849437,.00027018,47.0011,249.1714,159.5688,200.5306,0,U,41188,999,55801,.21351104E-3,.838E-5,0
ORBCOMM FM116,2015-081L,2026-06-05T04:18:38.361888,14.58864242,.0001292,47.0034,327.3957,353.0293,7.0575,0,U,41189,999,55718,.19679249E-3,.759E-5,0
